GLOBALSTAR M084         
1 38040U 11080A   25034.58812994 -.00000089  00000+0  83241-4 0  9994
2 38040  52.0009  95.1968 0000864 114.0280  43.7048 12.62261766605797
GLOBALSTAR M080         
1 38041U 11080B   25034.47091406 -.00000085  00000+0  10555-3 0  9993
2 38041  52.0070  97.1181 0001023 102.6676 359.2483 12.62277311605909
GLOBALSTAR M082         
1 38042U 11080C   25034.24132789 -.00000099  00000+0  28546-4 0  9994
2 38042  52.0084  53.2443 0000295 212.1331 228.3595 12.62272763606585
GLOBALSTAR M092         
1 38043U 11080D   25034.61608213 -.00000074  00000+0  16767-3 0  9990
2 38043  52.0081 142.4734 0000905 116.6367 347.6453 12.62272748605087
GLOBALSTAR M090         
1 38044U 11080E   25034.44098684 -.00000092  00000+0  67786-4 0  9995
2 38044  51.9894  46.6178 0000146 122.3056  25.2133 12.62266486606729
GLOBALSTAR M086         
1 38045U 11080F   25034.21469943 -.00000093  00000+0  58159-4 0  9996
2 38045  51.9906  47.8473 0000953  43.6501  35.5214 12.62266281606649
GLOBALSTAR M097         
1 39072U 13005A   25034.06562286 -.00000084  00000+0  10868-3 0  9997
2 39072  52.0070 322.7155 0000636  44.1386 315.9532 12.62269509553871
GLOBALSTAR M093         
1 39073U 13005B   25034.19693198 -.00000069  00000+0  19155-3 0  9990
2 39073  51.9830 315.8286 0000666  40.5648 319.5268 12.62260996553840
